NORAD_CAT_ID,OBJECT_NAME,OBJECT_TYPE,EPOCH,MEAN_MOTION,ECCENTRICITY,INCLINATION,RA_OF_ASC_NODE,ARG_OF_PERICENTER,MEAN_ANOMALY,BSTAR,MEAN_MOTION_DOT,MEAN_MOTION_DDOT,TLE_LINE0,TLE_LINE1,TLE_LINE2,SEMIMAJOR_AXIS,PERIOD,APOGEE,PERIGEE,DECAYED
54161.0,STARLINK-5269,PAYLOAD,2024-07-04 11:47:28,15.08833447,0.0001221,53.2159,246.9815,89.4172,270.696,6.3698e-05,7.26e-06,0.0,0 STARLINK-5269,1 54161U 22141E   24186.49130153  .00000726  00000-0  63698-4 0  9995,2 54161  53.2159 246.9815 0001221  89.4172 270.6960 15.08833447 93146,6917.9,95.438,540.61,538.921,0.0
54161.0,STARLINK-5269,PAYLOAD,2024-07-04 13:22:51,15.08839177,0.0001193,53.2157,246.6824,88.0461,272.0668,7.4488e-05,8.98e-06,0.0,0 STARLINK-5269,1 54161U 22141E   24186.55753792  .00000898  00000-0  74488-4 0  9991,2 54161  53.2157 246.6824 0001193  88.0461 272.0668 15.08839177 93153,6917.883,95.438,540.573,538.923,0.0
54161.0,STARLINK-5269,PAYLOAD,2024-07-04 21:19:46,15.08844974,0.0001156,53.2155,245.1954,86.6991,273.4133,0.00010593,1.399e-05,0.0,0 STARLINK-5269,1 54161U 22141E   24186.88873295  .00001399  00000-0  10593-3 0  9991,2 54161  53.2155 245.1954 0001156  86.6991 273.4133 15.08844974 93209,6917.865,95.437,540.53,538.93,0.0
54161.0,STARLINK-5269,PAYLOAD,2024-07-05 03:41:19,15.08844427,0.0001283,53.2157,244.0063,113.1284,246.9844,7.8514e-05,9.62e-06,0.0,0 STARLINK-5269,1 54161U 22141E   24187.15369278  .00000962  00000-0  78514-4 0  9996,2 54161  53.2157 244.0063 0001283 113.1284 246.9844 15.08844427 93243,6917.867,95.437,540.619,538.844,0.0
54161.0,STARLINK-5269,PAYLOAD,2024-07-05 10:02:51,15.08845703,0.0001204,53.2161,242.8167,94.6084,265.5045,2.6834e-05,1.39e-06,0.0,0 STARLINK-5269,1 54161U 22141E   24187.41865397  .00000139  00000-0  26834-4 0  9992,2 54161  53.2161 242.8167 0001204  94.6084 265.5045 15.08845703 93285,6917.863,95.437,540.561,538.895,0.0
54161.0,STARLINK-5269,PAYLOAD,2024-07-05 21:10:35,15.08826816,0.0001441,53.2159,240.7365,73.6418,286.4732,-0.00013493,-2.434e-05,0.0,0 STARLINK-5269,1 54161U 22141E   24187.88235478 -.00002434  00000-0 -13493-3 0  9992,2 54161  53.2159 240.7365 0001441  73.6418 286.4732 15.08826816 93357,6917.921,95.438,540.783,538.789,0.0
54161.0,STARLINK-5269,PAYLOAD,2024-07-06 13:04:27,15.08824307,0.0001151,53.2157,237.7603,84.4906,275.6218,-8.1119e-05,-1.578e-05,0.0,0 STARLINK-5269,1 54161U 22141E   24188.54475905 -.00001578  00000-0 -81119-4 0  9996,2 54161  53.2157 237.7603 0001151  84.4906 275.6218 15.08824307 93459,6917.928,95.439,540.59,538.997,0.0
54161.0,STARLINK-5269,PAYLOAD,2024-07-07 03:22:54,15.08834144,0.000121,53.2164,235.0858,73.2325,286.88,3.0166e-05,1.92e-06,0.0,0 STARLINK-5269,1 54161U 22141E   24189.14091296  .00000192  00000-0  30166-4 0  9995,2 54161  53.2164 235.0858 0001210  73.2325 286.8800 15.08834144 93548,6917.898,95.438,540.6,538.926,0.0
54161.0,STARLINK-5269,PAYLOAD,2024-07-07 09:44:27,15.08839881,0.0001152,53.2159,233.8966,65.8483,294.2629,7.134e-05,8.48e-06,0.0,0 STARLINK-5269,1 54161U 22141E   24189.40586965  .00000848  00000-0  71340-4 0  9993,2 54161  53.2159 233.8966 0001152  65.8483 294.2629 15.08839881 93584,6917.881,95.438,540.543,538.949,0.0
54161.0,STARLINK-5269,PAYLOAD,2024-07-08 09:35:13,15.08852296,0.0001165,53.215,229.4362,64.6924,295.4188,0.00041281,6.29e-05,0.0,0 STARLINK-5269,1 54161U 22141E   24190.39946746  .00006290  00000-0  41281-3 0  9997,2 54161  53.2150 229.4362 0001165  64.6924 295.4188 15.08852296 93732,6917.843,95.437,540.514,538.902,0.0
54161.0,STARLINK-5269,PAYLOAD,2024-07-08 19:07:31,15.08864121,0.000119,53.2153,227.6521,64.5166,295.5949,0.00042551,6.495e-05,0.0,0 STARLINK-5269,1 54161U 22141E   24190.79689804  .00006495  00000-0  42551-3 0  9998,2 54161  53.2153 227.6521 0001190  64.5166 295.5949 15.08864121 93799,6917.807,95.436,540.495,538.848,0.0
54161.0,STARLINK-5269,PAYLOAD,2024-07-09 03:04:27,15.08856211,0.0001847,53.2161,226.1664,80.1963,279.9237,8.4483e-05,1.057e-05,0.0,0 STARLINK-5269,1 54161U 22141E   24191.12810008  .00001057  00000-0  84483-4 0  9998,2 54161  53.2161 226.1664 0001847  80.1963 279.9237 15.08856211 93841,6917.831,95.437,540.974,538.418,0.0
54161.0,STARLINK-5269,PAYLOAD,2024-07-09 09:26:00,15.08845881,0.00012,53.2151,224.9752,69.324,290.7881,-2.8121e-05,-7.35e-06,0.0,0 STARLINK-5269,1 54161U 22141E   24191.39306230 -.00000735  00000-0 -28121-4 0  9995,2 54161  53.2151 224.9752 0001200  69.3240 290.7881 15.08845881 93885,6917.862,95.437,540.558,538.897,0.0
54161.0,STARLINK-5269,PAYLOAD,2024-07-10 09:16:47,15.08842451,0.0001237,53.2152,220.5143,70.5163,289.5962,-0.00010453,-1.951e-05,0.0,0 STARLINK-5269,1 54161U 22141E   24192.38666032 -.00001951  00000-0 -10453-3 0  9993,2 54161  53.2152 220.5143 0001237  70.5163 289.5962 15.08842451 94034,6917.873,95.437,540.594,538.882,0.0
54161.0,STARLINK-5269,PAYLOAD,2024-07-11 01:10:39,15.08838345,0.0001217,53.2148,217.5406,70.7039,289.4085,0.00013741,1.9e-05,0.0,0 STARLINK-5269,1 54161U 22141E   24193.04906309  .00001900  00000-0  13741-3 0  9996,2 54161  53.2148 217.5406 0001217  70.7039 289.4085 15.08838345 94132,6917.885,95.438,540.592,538.909,0.0
54161.0,STARLINK-5269,PAYLOAD,2024-07-11 10:42:57,15.08841224,0.0001205,53.2146,215.7561,68.9685,291.1436,0.00012706,1.735e-05,0.0,0 STARLINK-5269,1 54161U 22141E   24193.44650221  .00001735  00000-0  12706-3 0  9995,2 54161  53.2146 215.7561 0001205  68.9685 291.1436 15.08841224 94191,6917.877,95.437,540.575,538.908,0.0
54161.0,STARLINK-5269,PAYLOAD,2024-07-11 18:39:53,15.08844116,0.0001164,53.2147,214.2692,72.6863,287.4257,0.00016268,2.302e-05,0.0,0 STARLINK-5269,1 54161U 22141E   24193.77770060  .00002302  00000-0  16268-3 0  9993,2 54161  53.2147 214.2692 0001164  72.6863 287.4257 15.08844116 94243,6917.868,95.437,540.538,538.928,0.0
54161.0,STARLINK-5269,PAYLOAD,2024-07-12 10:33:44,15.088441,0.0001212,53.2147,211.2955,74.3252,285.7874,0.00018203,2.611e-05,0.0,0 STARLINK-5269,1 54161U 22141E   24194.44010167  .00002611  00000-0  18203-3 0  9997,2 54161  53.2147 211.2955 0001212  74.3252 285.7874 15.08844100 94347,6917.868,95.437,540.571,538.894,0.0
54161.0,STARLINK-5269,PAYLOAD,2024-07-12 18:30:40,15.08846121,0.0001228,53.2148,209.8088,74.0188,286.0939,0.00018067,2.589e-05,0.0,0 STARLINK-5269,1 54161U 22141E   24194.77130062  .00002589  00000-0  18067-3 0  9992,2 54161  53.2148 209.8088 0001228  74.0188 286.0939 15.08846121 94396,6917.862,95.437,540.576,538.877,0.0
54161.0,STARLINK-5269,PAYLOAD,2024-07-13 07:13:45,15.08842117,0.0001252,53.2148,207.4299,75.8771,284.236,8.5186e-05,1.068e-05,0.0,0 STARLINK-5269,1 54161U 22141E   24195.30122237  .00001068  00000-0  85186-4 0  9995,2 54161  53.2148 207.4299 0001252  75.8771 284.2360 15.08842117 94476,6917.874,95.437,540.605,538.873,0.0
54161.0,STARLINK-5269,PAYLOAD,2024-07-13 18:21:27,15.08844883,0.000126,53.2148,205.3486,75.0373,285.0759,0.00010897,1.447e-05,0.0,0 STARLINK-5269,1 54161U 22141E   24195.76490087  .00001447  00000-0  10897-3 0  9993,2 54161  53.2148 205.3486 0001260  75.0373 285.0759 15.08844883 94541,6917.865,95.437,540.602,538.859,0.0
54161.0,STARLINK-5269,PAYLOAD,2024-07-14 07:04:32,15.08843162,0.0001308,53.2162,202.9688,85.0418,275.0724,6.9317e-05,8.16e-06,0.0,0 STARLINK-5269,1 54161U 22141E   24196.29482179  .00000816  00000-0  69317-4 0  9996,2 54161  53.2162 202.9688 0001308  85.0418 275.0724 15.08843162 94627,6917.871,95.437,540.641,538.831,0.0
54161.0,STARLINK-5269,PAYLOAD,2024-07-15 03:44:33,15.08840679,0.0001288,53.2161,199.1031,84.146,275.9679,7.3103e-05,8.76e-06,0.0,0 STARLINK-5269,1 54161U 22141E   24197.15594342  .00000876  00000-0  73103-4 0  9992,2 54161  53.2161 199.1031 0001288  84.1460 275.9679 15.08840679 94751,6917.878,95.438,540.634,538.852,0.0
54161.0,STARLINK-5269,PAYLOAD,2024-07-15 10:06:06,15.08838318,0.0001298,53.216,197.9139,83.6293,276.4846,5.0785e-05,5.2e-06,0.0,0 STARLINK-5269,1 54161U 22141E   24197.42090511  .00000520  00000-0  50785-4 0  9998,2 54161  53.2160 197.9139 0001298  83.6293 276.4846 15.08838318 94797,6917.886,95.438,540.648,538.853,0.0
54161.0,STARLINK-5269,PAYLOAD,2024-07-16 05:10:43,15.0883712,0.0001246,53.2158,194.3454,81.6378,278.4756,5.433e-05,5.77e-06,0.0,0 STARLINK-5269,1 54161U 22141E   24198.21578633  .00000577  00000-0  54330-4 0  9994,2 54161  53.2158 194.3454 0001246  81.6378 278.4756 15.08837120 94916,6917.889,95.438,540.616,538.892,0.0
54161.0,STARLINK-5269,PAYLOAD,2024-07-16 06:46:07,15.08837936,0.0001235,53.2157,194.048,81.1096,279.0036,6.1374e-05,6.89e-06,0.0,0 STARLINK-5269,1 54161U 22141E   24198.28202566  .00000689  00000-0  61374-4 0  9990,2 54161  53.2157 194.0480 0001235  81.1096 279.0036 15.08837936 94925,6917.887,95.438,540.606,538.897,0.0
54161.0,STARLINK-5269,PAYLOAD,2024-07-17 06:36:54,15.08837676,0.0001206,53.2156,189.5872,80.3755,279.7373,8.6098e-05,1.083e-05,0.0,0 STARLINK-5269,1 54161U 22141E   24199.27562676  .00001083  00000-0  86098-4 0  9990,2 54161  53.2156 189.5872 0001206  80.3755 279.7373 15.08837676 95078,6917.887,95.438,540.587,538.918,0.0
54161.0,STARLINK-5269,PAYLOAD,2024-07-18 06:27:41,15.08837093,0.0001253,53.2158,185.1276,85.7714,274.3422,5.7286e-05,6.24e-06,0.0,0 STARLINK-5269,1 54161U 22141E   24200.26923095  .00000624  00000-0  57286-4 0  9995,2 54161  53.2158 185.1276 0001253  85.7714 274.3422 15.08837093 95222,6917.889,95.438,540.621,538.887,0.0
54161.0,STARLINK-5269,PAYLOAD,2024-07-18 15:59:59,15.08843718,0.0001254,53.216,183.3432,82.8405,277.273,9.2781e-05,1.189e-05,0.0,0 STARLINK-5269,1 54161U 22141E   24200.66666605  .00001189  00000-0  92781-4 0  9996,2 54161  53.2160 183.3432 0001254  82.8405 277.2730 15.08843718 95286,6917.869,95.437,540.602,538.867,0.0
54161.0,STARLINK-5269,PAYLOAD,2024-07-19 04:43:05,15.08836531,0.0001546,53.2178,180.9641,86.8785,273.2384,3.7679e-05,3.12e-06,0.0,0 STARLINK-5269,1 54161U 22141E   24201.19659382  .00000312  00000-0  37679-4 0  9991,2 54161  53.2178 180.9641 0001546  86.8785 273.2384 15.08836531 95364,6917.891,95.438,540.825,538.686,0.0
